{"fetched_at":"2026-03-29T16:36:15Z","count":15609,"tles":[{"name":"STARLINK-30329","line1":"1 57635U 23122D   26087.12938731  .00002869  00000+0  11374-3 0  9996","line2":"2 57635  43.0025 348.6588 0001960 272.9130  87.1497 15.27581824145025","category":"Starlink"}]}